STARLINK-1207
1 25380C 20019W   21325.12742698 -.00001185  00000-0 -79371-4 0  3255
2 25380  53.0531 352.6697 0000934 110.3592 342.3385 15.06400473    13
